OBJECT_NAME,OBJECT_ID,EPOCH,MEAN_MOTION,ECCENTRICITY,INCLINATION,RA_OF_ASC_NODE,ARG_OF_PERICENTER,MEAN_ANOMALY,EPHEMERIS_TYPE,CLASSIFICATION_TYPE,NORAD_CAT_ID,ELEMENT_SET_NO,REV_AT_EPOCH,BSTAR,MEAN_MOTION_DOT,MEAN_MOTION_DDOT
GSAT-29,2018-089A,2026-06-28T22:59:11.519808,1.00271397,.00037776,0.0801,261.6957,172.9448,242.2242,0,U,43698,999,2790,0,.97E-6,0
ES'HAIL 2,2018-090A,2026-06-28T21:08:09.291840,1.00270798,.0002242,0.0274,25.1742,106.9406,127.6792,0,U,43700,999,2779,0,0,0
GEO-KOMPSAT-2A,2018-100A,2026-06-28T23:20:02.021568,1.00271731,.00023954,0.0430,129.0252,321.3321,304.9795,0,U,43823,999,2774,0,-.332E-5,0
GSAT-11,2018-100B,2026-06-28T23:04:33.504960,1.00271883,.00082409,0.0874,266.6661,186.4181,244.1212,0,U,43824,999,2759,0,-.66E-6,0
GSAT-7A,2018-105A,2026-06-28T23:01:26.303808,1.00274811,.00022652,0.0481,95.4187,343.8103,245.9882,0,U,43864,999,2756,0,.37E-6,0
COSMOS 2533,2018-107A,2026-06-28T00:48:54.358272,1.00272300,.00006856,0.0492,105.9638,94.1937,158.1910,0,U,43867,999,2755,0,-.27E-6,0
TJS-3,2018-110A,2026-06-28T18:36:07.636032,1.00268783,.0002659,2.5737,80.3621,75.8867,187.8196,0,U,43874,999,2753,0,-.208E-5,0
ZHONGXING-2D,2019-001A,2026-06-28T23:20:31.973856,1.00271022,.00011177,0.0161,44.5891,312.6568,39.9835,0,U,43920,999,5419,0,0,0
HELLAS-SAT 4 & SGS-1,2019-007A,2026-06-28T22:54:34.461792,1.00268498,.00055285,0.0741,127.7757,9.0805,162.8500,0,U,44034,999,2748,0,.164E-5,0
GSAT-31,2019-007B,2026-06-28T22:57:11.710656,1.00271761,.00006896,0.0454,245.9702,144.2219,279.0001,0,U,44035,999,2708,0,.137E-5,0
NUSANTARA SATU,2019-009A,2026-06-28T21:42:28.596960,1.00271454,.0004783,0.0413,136.4864,341.4719,270.6623,0,U,44048,999,2688,0,-.223E-5,0
ZHONGXING-6C,2019-012A,2026-06-28T23:20:39.462144,1.00273276,.00148677,0.0558,64.4137,347.3836,345.8478,0,U,44067,999,2685,0,-.324E-5,0
WGS 10 (USA 291),2019-014A,2026-06-28T21:18:09.557568,1.00270504,.00004185,0.0192,30.0182,70.1531,196.6434,0,U,44071,999,2673,0,.58E-6,0
TIANLIAN 2-01,2019-017A,2026-06-28T23:00:21.047616,1.00272292,.00013599,0.5696,83.1258,43.0346,212.9894,0,U,44076,999,2676,0,-.96E-6,0
ARABSAT-6A,2019-021A,2026-06-28T22:52:12.190368,1.00271374,.00007744,0.0523,19.5768,345.3401,285.6809,0,U,44186,999,2627,0,.165E-5,0
BEIDOU-3 IGSO-1,2019-023A,2026-06-24T12:59:44.316960,1.00289953,.00257477,58.7053,37.5725,224.9564,323.4804,0,U,44204,999,728,0,-.226E-5,0
BEIDOU-2 G8,2019-027A,2026-06-27T23:27:31.406112,1.00268598,.00098358,1.6855,74.5233,285.1014,52.8069,0,U,44231,999,2618,0,-.238E-5,0
YAMAL 601,2019-031A,2026-06-28T22:57:26.687232,1.00271401,.00028393,0.0159,50.4108,41.2523,218.7404,0,U,44307,999,2604,0,.131E-5,0
AT&T T-16,2019-034A,2026-06-28T15:24:04.590720,1.00271064,.00007327,0.0136,53.4567,291.8967,61.5474,0,U,44333,999,2574,0,-.104E-5,0
EUTELSAT 7C,2019-034B,2026-06-28T14:12:11.187360,1.00271596,.00035611,0.0743,180.8334,261.3216,54.5875,0,U,44334,999,695,0,.6E-6,0
BEIDOU-3 IGSO-2,2019-035A,2026-06-26T20:34:38.686944,1.00263830,.00395927,55.2494,158.7781,216.4480,327.7946,0,U,44337,999,2576,0,-.73E-6,0
COSMOS 2539,2019-048A,2026-06-28T14:13:41.044224,1.00272077,.00006797,0.0375,90.1467,349.4312,62.5262,0,U,44457,999,2534,0,.92E-6,0
EDRS-C,2019-049A,2026-06-28T21:41:28.693248,1.00275228,.00012827,0.0154,70.6593,37.0484,277.1391,0,U,44475,999,2532,0,-.25E-5,0
INTELSAT 39 (IS-39),2019-049B,2026-06-28T23:01:11.328096,1.00269275,.00008998,0.0250,11.9936,339.7199,332.5860,0,U,44476,999,2524,0,0,0
AMOS-17,2019-050A,2026-06-28T22:48:23.524992,1.00273067,.00023067,0.0225,324.9756,161.0759,150.0776,0,U,44479,999,2530,0,.121E-5,0
AEHF-5 (USA 292),2019-051A,2026-06-28T23:10:10.466688,1.00270845,.00657224,1.4435,337.1024,359.6211,20.9623,0,U,44481,999,2538,0,-.245E-5,0
EUTELSAT 5 WEST B,2019-067A,2026-06-28T15:51:25.541856,1.00271835,.00034512,0.0631,9.3094,87.8983,52.3968,0,U,44624,999,2455,0,-.31E-6,0
MEV-1,2019-067B,2026-06-16T22:18:40.152960,1.00269616,.00027946,0.8740,268.9828,179.8034,307.2103,0,U,44625,999,6174,0,-.149E-5,0
TJS-4,2019-070A,2026-06-28T23:07:18.242112,1.00272978,.00042223,0.0464,85.7032,321.0406,300.6792,0,U,44637,999,2465,0,-.159E-5,0
TIBA-1,2019-080A,2026-06-28T22:53:34.558080,1.00270027,.00022992,0.0509,9.0520,94.7934,192.0893,0,U,44800,999,2417,0,.167E-5,0
INMARSAT GX5,2019-080B,2026-06-28T23:58:07.254912,1.00274283,.00023404,0.0350,348.3565,105.6611,193.5990,0,U,44801,999,690,0,.86E-6,0
JCSAT-18 (KACIFIC 1),2019-091A,2026-06-28T10:51:51.595200,1.00274401,.00002854,0.0488,225.8144,186.5937,177.1148,0,U,44868,999,2412,0,-.188E-5,0
