GSAT-29                 
1 43698U 18089A   26179.95777222  .00000097  00000+0  00000+0 0  9996
2 43698   0.0801 261.6957 0003777 172.9448 242.2242  1.00271397 27902
ES'HAIL 2               
1 43700U 18090A   26179.88066310  .00000000  00000+0  00000+0 0  9997
2 43700   0.0274  25.1742 0002242 106.9406 127.6792  1.00270798 27799
GEO-KOMPSAT-2A          
1 43823U 18100A   26179.97224562 -.00000332  00000+0  00000+0 0  9999
2 43823   0.0430 129.0252 0002395 321.3321 304.9795  1.00271731 27743
GSAT-11                 
1 43824U 18100B   26179.96149890 -.00000066  00000+0  00000+0 0  9993
2 43824   0.0874 266.6661 0008240 186.4181 244.1212  1.00271883 27597
GSAT-7A                 
1 43864U 18105A   26179.95933222  .00000037  00000+0  00000+0 0  9998
2 43864   0.0481  95.4187 0002265 343.8103 245.9882  1.00274811 27563
COSMOS 2533             
1 43867U 18107A   26179.03396248 -.00000027  00000+0  00000+0 0  9993
2 43867   0.0492 105.9638 0000685  94.1937 158.1910  1.00272300 27558
TJS-3                   
1 43874U 18110A   26179.77508838 -.00000208  00000+0  00000+0 0  9997
2 43874   2.5737  80.3621 0002659  75.8867 187.8196  1.00268783 27537
ZHONGXING-2D            
1 43920U 19001A   26179.97259229  .00000000  00000+0  00000+0 0  9997
2 43920   0.0161  44.5891 0001117 312.6568  39.9835  1.00271022 54191
HELLAS-SAT 4 & SGS-1    
1 44034U 19007A   26179.95456553  .00000164  00000+0  00000+0 0  9998
2 44034   0.0741 127.7757 0005528   9.0805 162.8500  1.00268498 27488
GSAT-31                 
1 44035U 19007B   26179.95638554  .00000137  00000+0  00000+0 0  9992
2 44035   0.0454 245.9702 0000689 144.2219 279.0001  1.00271761 27087
NUSANTARA SATU          
1 44048U 19009A   26179.90449765 -.00000223  00000+0  00000+0 0  9994
2 44048   0.0413 136.4864 0004783 341.4719 270.6623  1.00271454 26887
ZHONGXING-6C            
1 44067U 19012A   26179.97267896 -.00000324  00000+0  00000+0 0  9991
2 44067   0.0558  64.4137 0014867 347.3836 345.8478  1.00273276 26854
WGS 10 (USA 291)        
1 44071U 19014A   26179.88761062  .00000058  00000+0  00000+0 0  9995
2 44071   0.0192  30.0182 0000418  70.1531 196.6434  1.00270504 26734
TIANLIAN 2-01           
1 44076U 19017A   26179.95857694 -.00000096  00000+0  00000+0 0  9991
2 44076   0.5696  83.1258 0001359  43.0346 212.9894  1.00272292 26765
ARABSAT-6A              
1 44186U 19021A   26179.95291887  .00000165  00000+0  00000+0 0  9990
2 44186   0.0523  19.5768 0000774 345.3401 285.6809  1.00271374 26279
BEIDOU-3 IGSO-1         
1 44204U 19023A   26175.54148515 -.00000226  00000+0  00000+0 0  9992
2 44204  58.7053  37.5725 0025747 224.9564 323.4804  1.00289953  7288
BEIDOU-2 G8             
1 44231U 19027A   26178.97744683 -.00000238  00000+0  00000+0 0  9997
2 44231   1.6855  74.5233 0009835 285.1014  52.8069  1.00268598 26187
YAMAL 601               
1 44307U 19031A   26179.95655888  .00000131  00000+0  00000+0 0  9994
2 44307   0.0159  50.4108 0002839  41.2523 218.7404  1.00271401 26046
AT&T T-16               
1 44333U 19034A   26179.64171980 -.00000104  00000+0  00000+0 0  9999
2 44333   0.0136  53.4567 0000732 291.8967  61.5474  1.00271064 25749
EUTELSAT 7C             
1 44334U 19034B   26179.59179615  .00000060  00000+0  00000+0 0  9997
2 44334   0.0743 180.8334 0003561 261.3216  54.5875  1.00271596  6952
BEIDOU-3 IGSO-2         
1 44337U 19035A   26177.85739221 -.00000073  00000+0  00000+0 0  9998
2 44337  55.2494 158.7781 0039592 216.4480 327.7946  1.00263830 25763
COSMOS 2539             
1 44457U 19048A   26179.59283616  .00000092  00000+0  00000+0 0  9990
2 44457   0.0375  90.1467 0000679 349.4312  62.5262  1.00272077 25349
EDRS-C                  
1 44475U 19049A   26179.90380432 -.00000250  00000+0  00000+0 0  9997
2 44475   0.0154  70.6593 0001282  37.0484 277.1391  1.00275228 25324
INTELSAT 39 (IS-39)     
1 44476U 19049B   26179.95915889  .00000000  00000+0  00000+0 0  9995
2 44476   0.0250  11.9936 0000899 339.7199 332.5860  1.00269275 25242
AMOS-17                 
1 44479U 19050A   26179.95027228  .00000121  00000+0  00000+0 0  9995
2 44479   0.0225 324.9756 0002306 161.0759 150.0776  1.00273067 25307
AEHF-5 (USA 292)        
1 44481U 19051A   26179.96539892 -.00000245  00000+0  00000+0 0  9993
2 44481   1.4435 337.1024 0065722 359.6211  20.9623  1.00270845 25386
EUTELSAT 5 WEST B       
1 44624U 19067A   26179.66071229 -.00000031  00000+0  00000+0 0  9994
2 44624   0.0631   9.3094 0003451  87.8983  52.3968  1.00271835 24559
MEV-1                   
1 44625U 19067B   26167.92963140 -.00000149  00000+0  00000+0 0  9993
2 44625   0.8740 268.9828 0002794 179.8034 307.2103  1.00269616 61744
TJS-4                   
1 44637U 19070A   26179.96340558 -.00000159  00000+0  00000+0 0  9990
2 44637   0.0464  85.7032 0004222 321.0406 300.6792  1.00272978 24651
TIBA-1                  
1 44800U 19080A   26179.95387220  .00000167  00000+0  00000+0 0  9997
2 44800   0.0509   9.0520 0002299  94.7934 192.0893  1.00270027 24171
INMARSAT GX5            
1 44801U 19080B   26179.99869508  .00000086  00000+0  00000+0 0  9996
2 44801   0.0350 348.3565 0002340 105.6611 193.5990  1.00274283  6908
JCSAT-18 (KACIFIC 1)    
1 44868U 19091A   26179.45268050 -.00000188  00000+0  00000+0 0  9991
2 44868   0.0488 225.8144 0000285 186.5937 177.1148  1.00274401 24129
